[
  {
    "name": "CARTOSAT2E",
    "line1": "1 42767U 17036C   24059.14664137  .00005651  00000+0  27190-3 0  9993",
    "line2": "2 42767  97.4532 120.0952 0007357  16.2401 343.9068 15.19157649370600"
  },
  {
    "name": "KANOPUSVIK",
    "line1": "1 42825U 17042A   24059.14980618  .00001450  00000+0  66564-4 0  9992",
    "line2": "2 42825  97.4045 328.6291 0001861  85.4015 274.7434 15.21994899367545"
  },
  {
    "name": "VRSS2",
    "line1": "1 42954U 17060A   24059.14843209  .00001285  00000+0  18440-3 0  9994",
    "line2": "2 42954  97.7697 119.3230 0017278 321.8975  38.1014 14.78052287344215"
  },
  {
    "name": "NOAA20",
    "line1": "1 43013U 17073A   24059.12212552  .00000141  00000+0  87491-4 0  9997",
    "line2": "2 43013  98.7393 358.7878 0001647  95.8156 264.3208 14.19551539325288"
  },
  {
    "name": "JILIN104",
    "line1": "1 43022U 17074A   24059.17759985  .00006687  00000+0  32760-3 0  9998",
    "line2": "2 43022  97.4875 151.8535 0005474 301.9838  58.0863 15.18470897345825"
  },
  {
    "name": "JILIN105",
    "line1": "1 43023U 17074B   24059.18833265  .00006841  00000+0  33416-3 0  9995",
    "line2": "2 43023  97.4896 152.3445 0005970 319.8822  40.1971 15.18566233345830"
  },
  {
    "name": "JILIN106",
    "line1": "1 43024U 17074C   24059.17219756  .00004444  00000+0  23140-3 0  9998",
    "line2": "2 43024  97.4890 151.4970 0008780 323.5514  36.5121 15.16496262345782"
  },
  {
    "name": "JILIN107",
    "line1": "1 43159U 18008E   24059.11659822  .00006476  00000+0  32958-3 0  9995",
    "line2": "2 43159  97.2600  96.9169 0012640 150.2319 209.9637 15.17075352336871"
  },
  {
    "name": "JILIN108",
    "line1": "1 43160U 18008F   24059.10993323  .00006324  00000+0  32435-3 0  9995",
    "line2": "2 43160  97.2605  96.6669 0008989 160.1972 199.9612 15.16846207336860"
  },
  {
    "name": "KANOPUSV3",
    "line1": "1 43180U 18014A   24059.13299062  .00000455  00000+0  23022-4 0  9998",
    "line2": "2 43180  97.4044 328.6123 0001889  85.1092 275.0360 15.21905082336897"
  },
  {
    "name": "KANOPUSV4",
    "line1": "1 43181U 18014B   24059.16668295  .00000061  00000+0  56528-5 0  9991",
    "line2": "2 43181  97.4046 328.7212 0001985  87.1921 272.9543 15.22245549336918"
  },
  {
    "name": "GOES17",
    "line1": "1 43226U 18022A   24058.60862387 -.00000084  00000+0  00000+0 0  9990",
    "line2": "2 43226   0.0288 283.4920 0001387  29.9081 317.9364  1.00271824 21992"
  },
  {
    "name": "ZHUHAI1OVS02",
    "line1": "1 43440U 18040B   24059.17318572  .00022595  00000+0  56213-3 0  9994",
    "line2": "2 43440  97.1543 107.9940 0007292  12.1466 347.9956 15.40258381324544"
  },
  {
    "name": "ZHUHAI1OHS02",
    "line1": "1 43441U 18040C   24059.12412021  .00024527  00000+0  59346-3 0  9991",
    "line2": "2 43441  97.1660 111.4662 0007957  25.2303 334.9331 15.41082650324558"
  },
  {
    "name": "SAOCOM1A",
    "line1": "1 43641U 18076A   24059.10227368  .00000767  00000+0  10288-3 0  9990",
    "line2": "2 43641  97.8880 246.9057 0001448  89.4685 270.6694 14.82150942291664"
  },
  {
    "name": "KHALIFASAT",
    "line1": "1 43676U 18084F   24059.16524557  .00003185  00000+0  30672-3 0  9999",
    "line2": "2 43676  98.0226 202.3195 0014692  15.8299 344.3377 14.93627142290004"
  },
  {
    "name": "METOPC",
    "line1": "1 43689U 18087A   24059.12399675  .00000180  00000+0  10209-3 0  9999",
    "line2": "2 43689  98.6948 119.8352 0003059  55.0203 305.1262 14.21489595275480"
  },
  {
    "name": "ICEYEX2",
    "line1": "1 43800U 18099AU  24059.15269728  .00003843  00000+0  29589-3 0  9995",
    "line2": "2 43800  97.5568 119.6443 0011195 318.6244  41.4132 15.02191721286022"
  },
  {
    "name": "KANOPUSV5",
    "line1": "1 43876U 18111A   24059.11640184  .00001215  00000+0  56083-4 0  9999",
    "line2": "2 43876  97.4044 328.5888 0001806  81.3145 278.8296 15.22103984284929"
  },
  {
    "name": "KANOPUSV6",
    "line1": "1 43877U 18111B   24059.12230464  .00004444  00000+0  18688-3 0  9992",
    "line2": "2 43877  97.4043 328.6874 0002007  85.2635 274.8831 15.23916294284913"
  },
  {
    "name": "HARBINGERICEYEX3",
    "line1": "1 44229U 19026E   24058.85112448  .00682295  20995-3  13389-2 0  9997",
    "line2": "2 44229  39.9887 238.6650 0015908 339.5525  20.4664 15.98965177269403"
  },
  {
    "name": "RCM1",
    "line1": "1 44322U 19033A   24059.13441415  .00001354  00000+0  13712-3 0  9993",
    "line2": "2 44322  97.7601  67.5716 0001513  87.6659 272.4733 14.92587376256777"
  },
  {
    "name": "RCM3",
    "line1": "1 44323U 19033B   24059.15703227  .00000676  00000+0  71150-4 0  9995",
    "line2": "2 44323  97.7602  67.6902 0001541  89.4211 270.7185 14.92586907256795"
  },
  {
    "name": "RCM2",
    "line1": "1 44324U 19033C   24059.17924209  .00001669  00000+0  16773-3 0  9995",
    "line2": "2 44324  97.7600  67.6633 0001496  89.9521 270.1870 14.92587853256788"
  },
  {
    "name": "METEORM22",
    "line1": "1 44387U 19038A   24059.17713481  .00000076  00000+0  52770-4 0  9996",
    "line2": "2 44387  98.8141  28.0456 0000332 331.4069  28.7091 14.23855677241730"
  },
  {
    "name": "ICEYEX5",
    "line1": "1 44389U 19038C   24059.14628936  .00011239  00000+0  69585-3 0  9999",
    "line2": "2 44389  97.9151  49.1576 0014687 321.5958  38.4224 15.09883674254536"
  },
  {
    "name": "ICEYEX4",
    "line1": "1 44390U 19038D   24059.19255533  .00010824  00000+0  75123-3 0  9999",
    "line2": "2 44390  97.8864  44.6848 0017529 321.1945  38.8021 15.05639551254369"
  },
  {
    "name": "CBERS4A",
    "line1": "1 44883U 19093E   24059.14629941  .00001822  00000+0  23877-3 0  9997",
    "line2": "2 44883  97.8388 137.6108 0002526  80.8696 279.2803 14.81545032226699"
  },
  {
    "name": "SAOCOM1B",
    "line1": "1 46265U 20059A   24059.13357911  .00000739  00000+0  99377-4 0  9996",
    "line2": "2 46265  97.8887 246.0256 0001324  87.2263 272.9101 14.82166555189064"
  },
  {
    "name": "ICEYEX7",
    "line1": "1 46496U 20068L   24059.14532550  .00008447  00000+0  57713-3 0  9998",
    "line2": "2 46496  97.6676 358.0610 0012605   4.3986 355.7349 15.06346482187257"
  },
  {
    "name": "ICEYEX6",
    "line1": "1 46497U 20068M   24059.14594160  .00004199  00000+0  33561-3 0  9999",
    "line2": "2 46497  97.9128  13.0239 0007206  38.3025 321.8709 15.00783162187168"
  },
  {
    "name": "GAOFEN302",
    "line1": "1 49495U 21109A   24059.15980777  .00000132  00000+0  53261-4 0  9994",
    "line2": "2 49495  98.4155  67.9823 0001220  39.5829 320.5450 14.42160140119239"
  },
  {
    "name": "GAOFEN303",
    "line1": "1 52200U 22035A   24059.13104836  .00000123  00000+0  50409-4 0  9994",
    "line2": "2 52200  98.4152  68.5849 0001266 113.8767 246.2556 14.42221157 99779"
  }
]